{"fetched_at":"2026-07-19T17:31:04.968Z","source":"https://celestrak.org/NORAD/elements/gp.php?GROUP=globalstar&FORMAT=JSON","constellation":"globalstar","records":[{"OBJECT_NAME":"GLOBALSTAR M080","OBJECT_ID":"2011-080B","EPOCH":"2026-07-18T06:27:32.350752","CLASSIFICATION_TYPE":"U","MEAN_MOTION":12.62257576,"ECCENTRICITY":0.00002974,"INCLINATION":52.0065,"RA_OF_ASC_NODE":284.3895,"ARG_OF_PERICENTER":76.738,"MEAN_ANOMALY":295.7039,"EPHEMERIS_TYPE":0,"NORAD_CAT_ID":38041,"ELEMENT_SET_NO":999,"REV_AT_EPOCH":67281,"BSTAR":0.00012419676,"MEAN_MOTION_DOT":-8.2e-7,"MEAN_MOTION_DDOT":0},{"OBJECT_NAME":"GLOBALSTAR M082","OBJECT_ID":"2011-080C","EPOCH":"2026-07-19T05:57:48.358368","CLASSIFICATION_TYPE":"U","MEAN_MOTION":12.62264311,"ECCENTRICITY":0.00001844,"INCLINATION":52.0054,"RA_OF_ASC_NODE":236.9119,"ARG_OF_PERICENTER":64.4965,"MEAN_ANOMALY":10.4444,"EPHEMERIS_TYPE":0,"NORAD_CAT_ID":38042,"ELEMENT_SET_NO":999,"REV_AT_EPOCH":67364,"BSTAR":-5.27685e-7,"MEAN_MOTION_DOT":-0.00000104,"MEAN_MOTION_DDOT":0},{"OBJECT_NAME":"GLOBALSTAR M092","OBJECT_ID":"2011-080D","EPOCH":"2026-07-19T06:54:43.638912","CLASSIFICATION_TYPE":"U","MEAN_MOTION":12.62267896,"ECCENTRICITY":0.00007287,"INCLINATION":52.0105,"RA_OF_ASC_NODE":327.1892,"ARG_OF_PERICENTER":108.981,"MEAN_ANOMALY":265.0801,"EPHEMERIS_TYPE":0,"NORAD_CAT_ID":38043,"ELEMENT_SET_NO":999,"REV_AT_EPOCH":67210,"BSTAR":0.00011259608,"MEAN_MOTION_DOT":-8.4e-7,"MEAN_MOTION_DDOT":0},{"OBJECT_NAME":"GLOBALSTAR M090","OBJECT_ID":"2011-080E","EPOCH":"2026-07-19T02:35:02.839200","CLASSIFICATION_TYPE":"U","MEAN_MOTION":12.62269626,"ECCENTRICITY":0.00003895,"INCLINATION":52.0097,"RA_OF_ASC_NODE":231.3063,"ARG_OF_PERICENTER":84.6502,"MEAN_ANOMALY":308.9923,"EPHEMERIS_TYPE":0,"NORAD_CAT_ID":38044,"ELEMENT_SET_NO":999,"REV_AT_EPOCH":67374,"BSTAR":0.000037299333,"MEAN_MOTION_DOT":-9.7e-7,"MEAN_MOTION_DDOT":0},{"OBJECT_NAME":"GLOBALSTAR M086","OBJECT_ID":"2011-080F","EPOCH":"2026-07-19T03:05:46.216032","CLASSIFICATION_TYPE":"U","MEAN_MOTION":12.62287881,"ECCENTRICITY":0.00014376,"INCLINATION":51.9874,"RA_OF_ASC_NODE":231.1181,"ARG_OF_PERICENTER":117.4055,"MEAN_ANOMALY":277.2188,"EPHEMERIS_TYPE":0,"NORAD_CAT_ID":38045,"ELEMENT_SET_NO":999,"REV_AT_EPOCH":67369,"BSTAR":-0.000020099104,"MEAN_MOTION_DOT":-0.00000107,"MEAN_MOTION_DDOT":0},{"OBJECT_NAME":"GLOBALSTAR M097","OBJECT_ID":"2013-005A","EPOCH":"2026-07-19T05:34:40.954944","CLASSIFICATION_TYPE":"U","MEAN_MOTION":12.62271305,"ECCENTRICITY":0.00005229,"INCLINATION":52.0031,"RA_OF_ASC_NODE":145.7861,"ARG_OF_PERICENTER":44.151,"MEAN_ANOMALY":315.9399,"EPHEMERIS_TYPE":0,"NORAD_CAT_ID":39072,"ELEMENT_SET_NO":999,"REV_AT_EPOCH":62095,"BSTAR":0.000014441549,"MEAN_MOTION_DOT":-0.00000101,"MEAN_MOTION_DDOT":0},{"OBJECT_NAME":"GLOBALSTAR M093","OBJECT_ID":"2013-005B","EPOCH":"2026-07-19T04:56:09.842208","CLASSIFICATION_TYPE":"U","MEAN_MOTION":12.62266357,"ECCENTRICITY":0.00007481,"INCLINATION":52.0096,"RA_OF_ASC_NODE":139.2271,"ARG_OF_PERICENTER":50.0977,"MEAN_ANOMALY":309.9955,"EPHEMERIS_TYPE":0,"NORAD_CAT_ID":39073,"ELEMENT_SET_NO":999,"REV_AT_EPOCH":62090,"BSTAR":0.000079894857,"MEAN_MOTION_DOT":-8.9e-7,"MEAN_MOTION_DDOT":0},{"OBJECT_NAME":"GLOBALSTAR M094","OBJECT_ID":"2013-005C","EPOCH":"2026-07-19T01:07:54.629184","CLASSIFICATION_TYPE":"U","MEAN_MOTION":12.62264237,"ECCENTRICITY":0.00010355,"INCLINATION":51.9968,"RA_OF_ASC_NODE":53.7951,"ARG_OF_PERICENTER":68.697,"MEAN_ANOMALY":291.4007,"EPHEMERIS_TYPE":0,"NORAD_CAT_ID":39074,"ELEMENT_SET_NO":999,"REV_AT_EPOCH":62249,"BSTAR":0.000045405163,"MEAN_MOTION_DOT":-9.6e-7,"MEAN_MOTION_DDOT":0},{"OBJECT_NAME":"GLOBALSTAR M096","OBJECT_ID":"2013-005D","EPOCH":"2026-07-18T23:33:21.628512","CLASSIFICATION_TYPE":"U","MEAN_MOTION":12.62265811,"ECCENTRICITY":0.00008072,"INCLINATION":52.0075,"RA_OF_ASC_NODE":102.8215,"ARG_OF_PERICENTER":49.9335,"MEAN_ANOMALY":310.1602,"EPHEMERIS_TYPE":0,"NORAD_CAT_ID":39075,"ELEMENT_SET_NO":999,"REV_AT_EPOCH":62140,"BSTAR":0.00012914472,"MEAN_MOTION_DOT":-8.1e-7,"MEAN_MOTION_DDOT":0},{"OBJECT_NAME":"GLOBALSTAR M078","OBJECT_ID":"2013-005E","EPOCH":"2026-07-19T02:42:43.973280","CLASSIFICATION_TYPE":"U","MEAN_MOTION":12.62260103,"ECCENTRICITY":0.0000928,"INCLINATION":51.9845,"RA_OF_ASC_NODE":186.3872,"ARG_OF_PERICENTER":349.4687,"MEAN_ANOMALY":10.616,"EPHEMERIS_TYPE":0,"NORAD_CAT_ID":39076,"ELEMENT_SET_NO":999,"REV_AT_EPOCH":62004,"BSTAR":-0.00006959308,"MEAN_MOTION_DOT":-0.00000116,"MEAN_MOTION_DDOT":0},{"OBJECT_NAME":"GLOBALSTAR M095","OBJECT_ID":"2013-005F","EPOCH":"2026-07-19T05:15:09.891072","CLASSIFICATION_TYPE":"U","MEAN_MOTION":12.62264091,"ECCENTRICITY":0.00005449,"INCLINATION":52.0053,"RA_OF_ASC_NODE":183.7136,"ARG_OF_PERICENTER":19.4933,"MEAN_ANOMALY":340.5955,"EPHEMERIS_TYPE":0,"NORAD_CAT_ID":39077,"ELEMENT_SET_NO":999,"REV_AT_EPOCH":61991,"BSTAR":-0.000058653338,"MEAN_MOTION_DOT":-0.00000114,"MEAN_MOTION_DDOT":0},{"OBJECT_NAME":"GLOBALSTAR M087","OBJECT_ID":"2022-064A","EPOCH":"2026-07-19T07:28:02.747424","CLASSIFICATION_TYPE":"U","MEAN_MOTION":12.62269416,"ECCENTRICITY":0.00008989,"INCLINATION":52.0017,"RA_OF_ASC_NODE":324.6537,"ARG_OF_PERICENTER":90.0833,"MEAN_ANOMALY":270.0137,"EPHEMERIS_TYPE":0,"NORAD_CAT_ID":52888,"ELEMENT_SET_NO":999,"REV_AT_EPOCH":19519,"BSTAR":0.000088492307,"MEAN_MOTION_DOT":-8.8e-7,"MEAN_MOTION_DDOT":0}]}
