GLOBALSTAR M080         
1 38041U 11080B   26199.26912443 -.00000082  00000+0  12420-3 0  9996
2 38041  52.0065 284.3895 0000297  76.7380 295.7039 12.62257576672816
GLOBALSTAR M082         
1 38042U 11080C   26200.24847637 -.00000104  00000+0 -52768-6 0  9998
2 38042  52.0054 236.9119 0000184  64.4965  10.4444 12.62264311673644
GLOBALSTAR M092         
1 38043U 11080D   26200.28800508 -.00000084  00000+0  11260-3 0  9994
2 38043  52.0105 327.1892 0000728 108.9810 265.0801 12.62267896672106
GLOBALSTAR M090         
1 38044U 11080E   26200.10767175 -.00000097  00000+0  37299-4 0  9993
2 38044  52.0097 231.3063 0000389  84.6502 308.9923 12.62269626673740
GLOBALSTAR M086         
1 38045U 11080F   26200.12900713 -.00000107  00000+0 -20099-4 0  9996
2 38045  51.9874 231.1181 0001437 117.4055 277.2188 12.62287881673692
GLOBALSTAR M097         
1 39072U 13005A   26200.23241846 -.00000101  00000+0  14442-4 0  9991
2 39072  52.0031 145.7861 0000522  44.1510 315.9399 12.62271305620950
GLOBALSTAR M093         
1 39073U 13005B   26200.20566947 -.00000089  00000+0  79895-4 0  9999
2 39073  52.0096 139.2271 0000748  50.0977 309.9955 12.62266357620905
GLOBALSTAR M094         
1 39074U 13005C   26200.04716006 -.00000096  00000+0  45405-4 0  9993
2 39074  51.9968  53.7951 0001035  68.6970 291.4007 12.62264237622499
GLOBALSTAR M096         
1 39075U 13005D   26199.98150033 -.00000081  00000+0  12914-3 0  9998
2 39075  52.0075 102.8215 0000807  49.9335 310.1602 12.62265811621402
GLOBALSTAR M078         
1 39076U 13005E   26200.11300895 -.00000116  00000+0 -69593-4 0  9996
2 39076  51.9845 186.3872 0000928 349.4687  10.6160 12.62260103620043
GLOBALSTAR M095         
1 39077U 13005F   26200.21886448 -.00000114  00000+0 -58653-4 0  9994
2 39077  52.0053 183.7136 0000544  19.4933 340.5955 12.62264091619914
GLOBALSTAR M087         
1 52888U 22064A   26200.31114291 -.00000088  00000+0  88492-4 0  9998
2 52888  52.0017 324.6537 0000898  90.0833 270.0137 12.62269416195190
